OBJECT_NAME,OBJECT_ID,EPOCH,MEAN_MOTION,ECCENTRICITY,INCLINATION,RA_OF_ASC_NODE,ARG_OF_PERICENTER,MEAN_ANOMALY,EPHEMERIS_TYPE,CLASSIFICATION_TYPE,NORAD_CAT_ID,ELEMENT_SET_NO,REV_AT_EPOCH,BSTAR,MEAN_MOTION_DOT,MEAN_MOTION_DDOT
PERSEUS-M1,2014-033AF,2026-05-20T14:31:29.586720,14.95529052,.00125938,97.9635,84.2891,35.6412,324.5647,0,U,40039,999,64651,.10062219E-3,.1056E-4,0
POLYITAN-1,2014-033AJ,2026-05-20T23:01:24.585312,15.32209079,.00058541,98.0962,164.6661,230.7351,129.3369,0,U,40042,999,64942,.39703892E-3,.12271E-3,0
TIGRISAT,2014-033AK,2026-05-20T23:06:34.571232,14.85029761,.00499192,97.7801,291.6064,162.4568,197.8386,0,U,40043,999,64158,.16440674E-3,.1379E-4,0
AEROCUBE 6A,2014-033AM,2026-05-20T23:16:21.198720,14.97770858,.00399879,97.7226,308.2191,106.0681,254.4950,0,U,40045,999,64254,.28688588E-3,.3362E-4,0
AEROCUBE 6B,2014-033AN,2026-05-20T22:21:31.247424,14.99195415,.00387387,97.7183,307.9135,99.4105,261.1501,0,U,40046,999,64267,.36205546E-3,.4418E-4,0
CANX-4,2014-034C,2026-05-20T10:56:07.264896,14.81206483,.00141219,98.3156,14.7467,99.2570,261.0239,0,U,40055,999,64042,.78131774E-4,.552E-5,0
CANX-5,2014-034D,2026-05-20T09:17:03.024384,14.81223481,.00141161,98.3159,14.7172,99.6483,260.6324,0,U,40056,999,63122,.7898358E-4,.558E-5,0
UKUBE-1,2014-037F,2026-05-20T17:28:13.152000,15.13054628,.00005748,98.4246,141.1270,136.9114,223.2159,0,U,40074,999,64440,.30930414E-3,.5391E-4,0
BRITE-PL2 (HEWELIUSZ),2014-049B,2026-05-20T22:09:08.824320,14.94476765,.00137491,97.9070,252.7197,194.2731,165.8102,0,U,40119,999,63737,.15275705E-3,.1591E-4,0
AEROCUBE 5C,2015-058B,2026-05-20T22:42:08.283744,14.91282987,.01299703,64.7680,347.3266,73.9857,287.5525,0,U,40965,999,36159,.19149931E-3,.2068E-4,0
AEROCUBE 7,2015-058C,2026-05-20T19:39:18.023040,14.95493189,.01197307,64.7630,330.5249,72.6870,288.7301,0,U,40966,999,36186,.23986743E-3,.2892E-4,0
FOX-1A (AO-85),2015-058D,2026-05-20T22:01:15.678048,14.90792081,.01292794,64.7762,3.7192,67.2984,294.1734,0,U,40967,999,10950,.19972129E-3,.2131E-4,0
SINOD-D 1,2015-058E,2026-05-20T14:23:24.090432,14.95670429,.01177822,64.7759,345.2919,64.1616,297.1590,0,U,40968,999,11253,.23905025E-3,.2883E-4,0
SNAP-3 ALICE,2015-058G,2026-05-20T13:17:24.484704,15.54251907,.00333515,64.7513,198.9973,26.1120,334.1696,0,U,40970,999,11258,.84467141E-3,.5698E-3,0
LMRST-SAT,2015-058H,2026-05-20T14:20:29.120928,14.90416368,.0131025,64.7768,0.9993,69.4420,292.0693,0,U,40971,999,10944,.19831678E-3,.2102E-4,0
SNAP-3 EDDIE,2015-058J,2026-05-20T12:00:57.494016,15.55397410,.00336765,64.7431,190.1032,29.9318,330.3742,0,U,40972,999,11471,.80605176E-3,.56747E-3,0
PROPCUBE 3,2015-058K,2026-05-20T13:36:04.104288,14.94051580,.01231375,64.7691,338.8200,70.9347,290.5055,0,U,40973,999,11067,.21314774E-3,.2468E-4,0
BISONSAT,2015-058L,2026-05-20T14:07:49.752192,15.15581765,.00785054,64.7601,262.8261,58.9224,301.9574,0,U,40974,999,11143,.3774577E-3,.7577E-4,0
SNAP-3 JIMI,2015-058M,2026-05-20T21:26:31.030080,15.01994577,.0105159,64.7655,306.1084,66.7043,294.5100,0,U,40975,999,11012,.28837956E-3,.4082E-4,0
PROPCUBE 1 (FLORA),2015-058N,2026-05-20T22:19:18.634656,14.89048740,.01298277,64.7759,19.7031,71.5972,289.9205,0,U,40976,999,11220,.19607899E-3,.1992E-4,0
SINOD-D 3,2015-058P,2026-05-20T20:40:32.793024,14.93785161,.01183035,64.7734,1.1353,69.0656,292.3072,0,U,40977,999,11067,.24533268E-3,.2814E-4,0
HORYU-4,2016-012D,2026-05-20T12:21:57.642336,15.80155358,.00041775,30.9886,279.6091,88.1764,271.9372,0,U,41340,999,56641,.74679248E-3,.148657E-2,0
RAVAN,2016-067B,2026-05-20T22:08:05.951040,15.51921779,.00071257,97.9922,27.4017,98.9965,261.2092,0,U,41849,999,52346,.52357659E-3,.31413E-3,0
CELTEE 1,2016-067C,2026-05-20T03:42:29.223360,15.19373973,.00014392,98.0704,4.8110,56.1866,303.9504,0,U,41850,999,52162,.17225425E-3,.3565E-4,0
OPTICUBE 04,2016-067D,2026-05-20T08:56:08.985408,15.09526913,.00149441,98.0725,351.2035,207.3108,152.7335,0,U,41851,999,52097,.81897014E-4,.1244E-4,0
AEROCUBE 8D,2016-067E,2026-05-20T09:15:06.624576,15.23962793,.00024418,98.0712,8.4460,207.2452,152.8655,0,U,41852,999,52183,.22231499E-3,.5297E-4,0
AEROCUBE 8C,2016-067F,2026-05-20T14:41:06.273024,15.24205260,.00061505,98.0584,5.9531,143.5396,216.6259,0,U,41853,999,52186,.21270953E-3,.5104E-4,0
CORVUS BC2,2017-042X,2026-05-20T22:57:46.208448,15.06095063,.00126232,97.4041,303.3738,198.5198,161.5572,0,U,42846,999,48296,.10928138E-3,.154E-4,0
CORVUS BC1,2017-042Y,2026-05-20T22:54:28.014624,15.06265681,.00120882,97.4072,304.1677,174.6291,185.5068,0,U,42847,999,48299,.12040894E-3,.171E-4,0
MAKERSAT 0,2017-073D,2026-05-20T05:10:47.770752,15.30827686,.0110314,97.4657,22.5369,13.6755,346.7432,0,U,43016,999,46218,.53752E-3,.19291E-3,0
